H-2A R/B                
1 28932U 06002B   26072.37027926  .00010415  00000+0  52009-3 0  9994
2 28932  98.2409 219.7107 0052002 228.4057 131.2712 15.16505611 94991
RESURS-DK 1             
1 29228U 06021A   26072.43674355  .00003723  00000+0  21774-3 0  9994
2 29228  69.9325 227.3295 0001495 158.9675 201.1553 15.12774061 88095
CZ-4B R/B               
1 29507U 06046C   26072.56709400  .00005087  00000+0  25810-3 0  9995
2 29507  97.5592 117.4657 0031722 253.2446 106.5306 15.16948471 60636
CZ-2C R/B               
1 31114U 07010B   26072.31885168  .00000151  00000+0  88466-4 0  9997
2 31114  98.3980 185.4155 0057870 283.8341  75.6402 14.20247700980237
COSMO-SKYMED 1          
1 31598U 07023A   26072.60930773  .00005010  00000+0  44535-3 0  9999
2 31598  97.8881 263.6726 0001557  96.2002 263.9397 14.96571931 15492
COSMOS 2428             
1 31792U 07029A   26072.28685737  .00000021  00000+0  36778-4 0  9990
2 31792  70.9437 195.7931 0009262 273.4728  86.5333 14.12946842964605
SL-16 R/B               
1 31793U 07029B   26072.30999436  .00000193  00000+0  12485-3 0  9996
2 31793  70.9758 164.7755 0002293 276.2288 140.6873 14.14834639965885
KORONAS-FOTON           
1 33504U 09003A   26072.00609586  .00010895  00000+0  24259-3 0  9995
2 33504  82.4276 272.4290 0011522 138.7876 221.4244 15.43394033946253
CZ-2C R/B               
1 37731U 11030B   26072.34600343  .00001885  00000+0  24337-3 0  9999
2 37731  97.8544  29.5357 0052063 340.1293 180.5892 14.81238528790639
H-2A R/B                
1 38341U 12025E   26072.34236284  .00003256  00000+0  29713-3 0  9998
2 38341  98.4736  39.6814 0043199 302.0959  57.6069 14.95200662748763
SHIJIAN-16 (SJ-16)      
1 39358U 13057A   26072.65134479  .00002177  00000+0  21511-3 0  9999
2 39358  74.9733 177.5890 0015364 102.5142 257.7767 14.92366072672099
SL-4 R/B                
1 39679U 14021B   26072.06991903  .00015984  00000+0  35091-3 0  9993
2 39679  51.6079 320.7867 0097202 115.2875 245.8219 15.39304355656798
