CCSDS_OMM_VERS = 2.0
CREATION_DATE  = 
ORIGINATOR     = 

OBJECT_NAME    = H-2A R/B
OBJECT_ID      = 2006-002B
CENTER_NAME    = EARTH
REF_FRAME      = TEME
TIME_SYSTEM    = UTC
MEAN_ELEMENT_THEORY = SGP/SGP4

EPOCH          = 2026-03-13T08:53:12.128064
MEAN_MOTION    = 15.16505611
ECCENTRICITY   = .00520021
INCLINATION    = 98.2409
RA_OF_ASC_NODE = 219.7107
ARG_OF_PERICENTER = 228.4057
MEAN_ANOMALY   = 131.2712

EPHEMERIS_TYPE = 0
CLASSIFICATION_TYPE = U
NORAD_CAT_ID   = 28932
ELEMENT_SET_NO = 999
REV_AT_EPOCH   = 9499
BSTAR          = .52008827E-3
MEAN_MOTION_DOT = .10415E-3
MEAN_MOTION_DDOT = 0

CCSDS_OMM_VERS = 2.0
CREATION_DATE  = 
ORIGINATOR     = 

OBJECT_NAME    = RESURS-DK 1
OBJECT_ID      = 2006-021A
CENTER_NAME    = EARTH
REF_FRAME      = TEME
TIME_SYSTEM    = UTC
MEAN_ELEMENT_THEORY = SGP/SGP4

EPOCH          = 2026-03-13T10:28:54.642720
MEAN_MOTION    = 15.12774061
ECCENTRICITY   = .00014955
INCLINATION    = 69.9325
RA_OF_ASC_NODE = 227.3295
ARG_OF_PERICENTER = 158.9675
MEAN_ANOMALY   = 201.1553

EPHEMERIS_TYPE = 0
CLASSIFICATION_TYPE = U
NORAD_CAT_ID   = 29228
ELEMENT_SET_NO = 999
REV_AT_EPOCH   = 8809
BSTAR          = .21774186E-3
MEAN_MOTION_DOT = .3723E-4
MEAN_MOTION_DDOT = 0

CCSDS_OMM_VERS = 2.0
CREATION_DATE  = 
ORIGINATOR     = 

OBJECT_NAME    = CZ-4B R/B
OBJECT_ID      = 2006-046C
CENTER_NAME    = EARTH
REF_FRAME      = TEME
TIME_SYSTEM    = UTC
MEAN_ELEMENT_THEORY = SGP/SGP4

EPOCH          = 2026-03-13T13:36:36.921600
MEAN_MOTION    = 15.16948471
ECCENTRICITY   = .00317227
INCLINATION    = 97.5592
RA_OF_ASC_NODE = 117.4657
ARG_OF_PERICENTER = 253.2446
MEAN_ANOMALY   = 106.5306

EPHEMERIS_TYPE = 0
CLASSIFICATION_TYPE = U
NORAD_CAT_ID   = 29507
ELEMENT_SET_NO = 999
REV_AT_EPOCH   = 6063
BSTAR          = .25810144E-3
MEAN_MOTION_DOT = .5087E-4
MEAN_MOTION_DDOT = 0

CCSDS_OMM_VERS = 2.0
CREATION_DATE  = 
ORIGINATOR     = 

OBJECT_NAME    = CZ-2C R/B
OBJECT_ID      = 2007-010B
CENTER_NAME    = EARTH
REF_FRAME      = TEME
TIME_SYSTEM    = UTC
MEAN_ELEMENT_THEORY = SGP/SGP4

EPOCH          = 2026-03-13T07:39:08.785152
MEAN_MOTION    = 14.20247700
ECCENTRICITY   = .00578703
INCLINATION    = 98.3980
RA_OF_ASC_NODE = 185.4155
ARG_OF_PERICENTER = 283.8341
MEAN_ANOMALY   = 75.6402

EPHEMERIS_TYPE = 0
CLASSIFICATION_TYPE = U
NORAD_CAT_ID   = 31114
ELEMENT_SET_NO = 999
REV_AT_EPOCH   = 98023
BSTAR          = .88465954E-4
MEAN_MOTION_DOT = .151E-5
MEAN_MOTION_DDOT = 0

CCSDS_OMM_VERS = 2.0
CREATION_DATE  = 
ORIGINATOR     = 

OBJECT_NAME    = COSMO-SKYMED 1
OBJECT_ID      = 2007-023A
CENTER_NAME    = EARTH
REF_FRAME      = TEME
TIME_SYSTEM    = UTC
MEAN_ELEMENT_THEORY = SGP/SGP4

EPOCH          = 2026-03-13T14:37:24.187872
MEAN_MOTION    = 14.96571931
ECCENTRICITY   = .00015575
INCLINATION    = 97.8881
RA_OF_ASC_NODE = 263.6726
ARG_OF_PERICENTER = 96.2002
MEAN_ANOMALY   = 263.9397

EPHEMERIS_TYPE = 0
CLASSIFICATION_TYPE = U
NORAD_CAT_ID   = 31598
ELEMENT_SET_NO = 999
REV_AT_EPOCH   = 1549
BSTAR          = .44534898E-3
MEAN_MOTION_DOT = .501E-4
MEAN_MOTION_DDOT = 0

CCSDS_OMM_VERS = 2.0
CREATION_DATE  = 
ORIGINATOR     = 

OBJECT_NAME    = COSMOS 2428
OBJECT_ID      = 2007-029A
CENTER_NAME    = EARTH
REF_FRAME      = TEME
TIME_SYSTEM    = UTC
MEAN_ELEMENT_THEORY = SGP/SGP4

EPOCH          = 2026-03-13T06:53:04.476768
MEAN_MOTION    = 14.12946842
ECCENTRICITY   = .0009262
INCLINATION    = 70.9437
RA_OF_ASC_NODE = 195.7931
ARG_OF_PERICENTER = 273.4728
MEAN_ANOMALY   = 86.5333

EPHEMERIS_TYPE = 0
CLASSIFICATION_TYPE = U
NORAD_CAT_ID   = 31792
ELEMENT_SET_NO = 999
REV_AT_EPOCH   = 96460
BSTAR          = .3677801E-4
MEAN_MOTION_DOT = .21E-6
MEAN_MOTION_DDOT = 0

CCSDS_OMM_VERS = 2.0
CREATION_DATE  = 
ORIGINATOR     = 

OBJECT_NAME    = SL-16 R/B
OBJECT_ID      = 2007-029B
CENTER_NAME    = EARTH
REF_FRAME      = TEME
TIME_SYSTEM    = UTC
MEAN_ELEMENT_THEORY = SGP/SGP4

EPOCH          = 2026-03-13T07:26:23.512704
MEAN_MOTION    = 14.14834639
ECCENTRICITY   = .00022934
INCLINATION    = 70.9758
RA_OF_ASC_NODE = 164.7755
ARG_OF_PERICENTER = 276.2288
MEAN_ANOMALY   = 140.6873

EPHEMERIS_TYPE = 0
CLASSIFICATION_TYPE = U
NORAD_CAT_ID   = 31793
ELEMENT_SET_NO = 999
REV_AT_EPOCH   = 96588
BSTAR          = .1248485E-3
MEAN_MOTION_DOT = .193E-5
MEAN_MOTION_DDOT = 0

CCSDS_OMM_VERS = 2.0
CREATION_DATE  = 
ORIGINATOR     = 

OBJECT_NAME    = KORONAS-FOTON
OBJECT_ID      = 2009-003A
CENTER_NAME    = EARTH
REF_FRAME      = TEME
TIME_SYSTEM    = UTC
MEAN_ELEMENT_THEORY = SGP/SGP4

EPOCH          = 2026-03-13T00:08:46.682304
MEAN_MOTION    = 15.43394033
ECCENTRICITY   = .0011522
INCLINATION    = 82.4276
RA_OF_ASC_NODE = 272.4290
ARG_OF_PERICENTER = 138.7876
MEAN_ANOMALY   = 221.4244

EPHEMERIS_TYPE = 0
CLASSIFICATION_TYPE = U
NORAD_CAT_ID   = 33504
ELEMENT_SET_NO = 999
REV_AT_EPOCH   = 94625
BSTAR          = .24258724E-3
MEAN_MOTION_DOT = .10895E-3
MEAN_MOTION_DDOT = 0

CCSDS_OMM_VERS = 2.0
CREATION_DATE  = 
ORIGINATOR     = 

OBJECT_NAME    = CZ-2C R/B
OBJECT_ID      = 2011-030B
CENTER_NAME    = EARTH
REF_FRAME      = TEME
TIME_SYSTEM    = UTC
MEAN_ELEMENT_THEORY = SGP/SGP4

EPOCH          = 2026-03-13T08:18:14.696352
MEAN_MOTION    = 14.81238528
ECCENTRICITY   = .00520635
INCLINATION    = 97.8544
RA_OF_ASC_NODE = 29.5357
ARG_OF_PERICENTER = 340.1293
MEAN_ANOMALY   = 180.5892

EPHEMERIS_TYPE = 0
CLASSIFICATION_TYPE = U
NORAD_CAT_ID   = 37731
ELEMENT_SET_NO = 999
REV_AT_EPOCH   = 79063
BSTAR          = .24337131E-3
MEAN_MOTION_DOT = .1885E-4
MEAN_MOTION_DDOT = 0

CCSDS_OMM_VERS = 2.0
CREATION_DATE  = 
ORIGINATOR     = 

OBJECT_NAME    = H-2A R/B
OBJECT_ID      = 2012-025E
CENTER_NAME    = EARTH
REF_FRAME      = TEME
TIME_SYSTEM    = UTC
MEAN_ELEMENT_THEORY = SGP/SGP4

EPOCH          = 2026-03-13T08:13:00.149376
MEAN_MOTION    = 14.95200662
ECCENTRICITY   = .00431998
INCLINATION    = 98.4736
RA_OF_ASC_NODE = 39.6814
ARG_OF_PERICENTER = 302.0959
MEAN_ANOMALY   = 57.6069

EPHEMERIS_TYPE = 0
CLASSIFICATION_TYPE = U
NORAD_CAT_ID   = 38341
ELEMENT_SET_NO = 999
REV_AT_EPOCH   = 74876
BSTAR          = .29712737E-3
MEAN_MOTION_DOT = .3256E-4
MEAN_MOTION_DDOT = 0

CCSDS_OMM_VERS = 2.0
CREATION_DATE  = 
ORIGINATOR     = 

OBJECT_NAME    = SHIJIAN-16 (SJ-16)
OBJECT_ID      = 2013-057A
CENTER_NAME    = EARTH
REF_FRAME      = TEME
TIME_SYSTEM    = UTC
MEAN_ELEMENT_THEORY = SGP/SGP4

EPOCH          = 2026-03-13T15:37:56.189856
MEAN_MOTION    = 14.92366072
ECCENTRICITY   = .00153649
INCLINATION    = 74.9733
RA_OF_ASC_NODE = 177.5890
ARG_OF_PERICENTER = 102.5142
MEAN_ANOMALY   = 257.7767

EPHEMERIS_TYPE = 0
CLASSIFICATION_TYPE = U
NORAD_CAT_ID   = 39358
ELEMENT_SET_NO = 999
REV_AT_EPOCH   = 67209
BSTAR          = .21511277E-3
MEAN_MOTION_DOT = .2177E-4
MEAN_MOTION_DDOT = 0

CCSDS_OMM_VERS = 2.0
CREATION_DATE  = 
ORIGINATOR     = 

OBJECT_NAME    = SL-4 R/B
OBJECT_ID      = 2014-021B
CENTER_NAME    = EARTH
REF_FRAME      = TEME
TIME_SYSTEM    = UTC
MEAN_ELEMENT_THEORY = SGP/SGP4

EPOCH          = 2026-03-13T01:40:41.004192
MEAN_MOTION    = 15.39304355
ECCENTRICITY   = .00972029
INCLINATION    = 51.6079
RA_OF_ASC_NODE = 320.7867
ARG_OF_PERICENTER = 115.2875
MEAN_ANOMALY   = 245.8219

EPHEMERIS_TYPE = 0
CLASSIFICATION_TYPE = U
NORAD_CAT_ID   = 39679
ELEMENT_SET_NO = 999
REV_AT_EPOCH   = 65679
BSTAR          = .35090988E-3
MEAN_MOTION_DOT = .15984E-3
MEAN_MOTION_DDOT = 0

